start=new Date('2022-01-11T00:00:00.000Z').valueOf();
sats=[{"NORAD_CAT_ID":"45705","MEAN_ELEMENT_THEORY":"SGP4","TIME_SYSTEM":"UTC","DECAY_DATE":null,"SEMIMAJOR_AXIS":"6925.347","ECCENTRICITY":"0.00015980","REV_AT_EPOCH":"8979","EPHEMERIS_TYPE":"0","EPOCH":"2022-01-10T19:48:17.112384","COUNTRY_CODE":"US","APOAPSIS":"548.319","ELEMENT_SET_NO":"999","LAUNCH_DATE":"2020-06-04","CLASSIFICATION_TYPE":"U","MEAN_MOTION":"15.06400515","CENTER_NAME":"EARTH","RA_OF_ASC_NODE":"45.0729","ARG_OF_PERICENTER":"75.9004","FILE":"3269118","MEAN_MOTION_DDOT":"0.0000000000000","OBJECT_TYPE":"PAYLOAD","REF_FRAME":"TEME","OBJECT_NAME":"STARLINK-1410","TLE_LINE1":"1 45705U 20035BA  22010.82519806  .00000229  00000-0  34289-4 0  9998","BSTAR":"0.00003428900000","RCS_SIZE":"LARGE","TLE_LINE2":"2 45705  53.0546  45.0729 0001598  75.9004 284.2162 15.06400515 89796","PERIOD":"95.592","MEAN_ANOMALY":"284.2162","GP_ID":"193622424","SITE":"AFETR","OBJECT_ID":"2020-035BA","MEAN_MOTION_DOT":"0.00000229","INCLINATION":"53.0546","PERIAPSIS":"546.105"},{"LAUNCH_DATE":"2020-06-04","ELEMENT_SET_NO":"999","COUNTRY_CODE":"US","APOAPSIS":"548.285","EPOCH":"2022-01-10T10:03:05.969376","EPHEMERIS_TYPE":"0","REV_AT_EPOCH":"9015","DECAY_DATE":null,"SEMIMAJOR_AXIS":"6925.343","ECCENTRICITY":"0.00015560","TIME_SYSTEM":"UTC","NORAD_CAT_ID":"45706","MEAN_ELEMENT_THEORY":"SGP4","ARG_OF_PERICENTER":"67.6708","RA_OF_ASC_NODE":"16.8890","CENTER_NAME":"EARTH","MEAN_MOTION":"15.06401928","CLASSIFICATION_TYPE":"U","RCS_SIZE":"LARGE","BSTAR":"0.00002793000000","TLE_LINE1":"1 45706U 20035BB  22010.41881909  .00000135  00000-0  27930-4 0  9991","OBJECT_NAME":"STARLINK-1411","REF_FRAME":"TEME","OBJECT_TYPE":"PAYLOAD","MEAN_MOTION_DDOT":"0.0000000000000","FILE":"3268856","PERIAPSIS":"546.130","MEAN_MOTION_DOT":"0.00000135","INCLINATION":"53.0552","OBJECT_ID":"2020-035BB","GP_ID":"193592763","SITE":"AFETR","MEAN_ANOMALY":"292.4446","PERIOD":"95.592","TLE_LINE2":"2 45706  53.0552  16.8890 0001556  67.6708 292.4446 15.06401928 90159"},{"EPOCH":"2022-01-10T17:55:29.466912","COUNTRY_CODE":"US","APOAPSIS":"548.228","ELEMENT_SET_NO":"999","LAUNCH_DATE":"2020-06-04","NORAD_CAT_ID":"45707","MEAN_ELEMENT_THEORY":"SGP4","TIME_SYSTEM":"UTC","DECAY_DATE":null,"SEMIMAJOR_AXIS":"6925.313","REV_AT_EPOCH":"9021","ECCENTRICITY":"0.00015160","EPHEMERIS_TYPE":"0","MEAN_MOTION":"15.06411530","CENTER_NAME":"EARTH","RA_OF_ASC_NODE":"15.4211","ARG_OF_PERICENTER":"73.4072","CLASSIFICATION_TYPE":"U","OBJECT_NAME":"STARLINK-1412","BSTAR":"0.00017864000000","TLE_LINE1":"1 45707U 20035BC  22010.74686883  .00002381  00000-0  17864-3 0  9991","RCS_SIZE":"LARGE","FILE":"3269118","MEAN_MOTION_DDOT":"0.0000000000000","OBJECT_TYPE":"PAYLOAD","REF_FRAME":"TEME","OBJECT_ID":"2020-035BC","MEAN_MOTION_DOT":"0.00002381","INCLINATION":"53.0559","PERIAPSIS":"546.128","TLE_LINE2":"2 45707  53.0559  15.4211 0001516  73.4072 286.7084 15.06411530 90215","PERIOD":"95.591","MEAN_ANOMALY":"286.7084","SITE":"AFETR","GP_ID":"193623425"},{"OBJECT_TYPE":"PAYLOAD","REF_FRAME":"TEME","FILE":"3269118","MEAN_MOTION_DDOT":"0.0000000000000","RCS_SIZE":"LARGE","OBJECT_NAME":"STARLINK-1418","TLE_LINE1":"1 45708U 20035BD  22010.72106651  .00002671  00000-0  19816-3 0  9991","BSTAR":"0.00019816000000","SITE":"AFETR","GP_ID":"193623675","PERIOD":"95.592","TLE_LINE2":"2 45708  53.0551  15.5362 0001550  70.8049 289.3108 15.06402160 90214","MEAN_ANOMALY":"289.3108","MEAN_MOTION_DOT":"0.00002671","INCLINATION":"53.0551","PERIAPSIS":"546.134","OBJECT_ID":"2020-035BD","TIME_SYSTEM":"UTC","DECAY_DATE":null,"ECCENTRICITY":"0.00015500","SEMIMAJOR_AXIS":"6925.342","REV_AT_EPOCH":"9021","EPHEMERIS_TYPE":"0","MEAN_ELEMENT_THEORY":"SGP4","NORAD_CAT_ID":"45708","COUNTRY_CODE":"US","APOAPSIS":"548.280","ELEMENT_SET_NO":"999","LAUNCH_DATE":"2020-06-04","EPOCH":"2022-01-10T17:18:20.146464","CLASSIFICATION_TYPE":"U","ARG_OF_PERICENTER":"70.8049","MEAN_MOTION":"15.06402160","CENTER_NAME":"EARTH","RA_OF_ASC_NODE":"15.5362"},{"FILE":"3268856","MEAN_MOTION_DDOT":"0.0000000000000","OBJECT_TYPE":"PAYLOAD","REF_FRAME":"TEME","OBJECT_NAME":"STARLINK-1421","TLE_LINE1":"1 45709U 20035BE  22010.42619937  .00004117  00000-0  29508-3 0  9991","BSTAR":"0.00029508000000","RCS_SIZE":"LARGE","MEAN_ANOMALY":"291.7037","PERIOD":"95.592","TLE_LINE2":"2 45709  53.0562  16.8536 0001360  68.4097 291.7037 15.06405518 90127","GP_ID":"193592021","SITE":"AFETR","OBJECT_ID":"2020-035BE","MEAN_MOTION_DOT":"0.00004117","INCLINATION":"53.0562","PERIAPSIS":"546.255","MEAN_ELEMENT_THEORY":"SGP4","NORAD_CAT_ID":"45709","TIME_SYSTEM":"UTC","EPHEMERIS_TYPE":"0","DECAY_DATE":null,"REV_AT_EPOCH":"9012","SEMIMAJOR_AXIS":"6925.332","ECCENTRICITY":"0.00013600","EPOCH":"2022-01-10T10:13:43.625568","ELEMENT_SET_NO":"999","APOAPSIS":"548.138","COUNTRY_CODE":"US","LAUNCH_DATE":"2020-06-04","CLASSIFICATION_TYPE":"U","CENTER_NAME":"EARTH","MEAN_MOTION":"15.06405518","RA_OF_ASC_NODE":"16.8536","ARG_OF_PERICENTER":"68.4097"},{"RCS_SIZE":"LARGE","OBJECT_NAME":"STARLINK-1423","TLE_LINE1":"1 45710U 20035BF  22010.28981092 -.00000038  00000-0  16347-4 0  9998","BSTAR":"0.00001634700000","OBJECT_TYPE":"PAYLOAD","REF_FRAME":"TEME","FILE":"3268856","MEAN_MOTION_DDOT":"0.0000000000000","INCLINATION":"53.0542","MEAN_MOTION_DOT":"-0.00000038","PERIAPSIS":"546.242","OBJECT_ID":"2020-035BF","GP_ID":"193592264","SITE":"AFETR","MEAN_ANOMALY":"297.6589","PERIOD":"95.592","TLE_LINE2":"2 45710  53.0542  17.4686 0001392  62.4542 297.6589 15.06402370 90146","ELEMENT_SET_NO":"999","COUNTRY_CODE":"US","APOAPSIS":"548.170","LAUNCH_DATE":"2020-06-04","EPOCH":"2022-01-10T06:57:19.663488","TIME_SYSTEM":"UTC","EPHEMERIS_TYPE":"0","REV_AT_EPOCH":"9014","DECAY_DATE":null,"SEMIMAJOR_AXIS":"6925.341","ECCENTRICITY":"0.00013920","MEAN_ELEMENT_THEORY":"SGP4","NORAD_CAT_ID":"45710","ARG_OF_PERICENTER":"62.4542","CENTER_NAME":"EARTH","MEAN_MOTION":"15.06402370","RA_OF_ASC_NODE":"17.4686","CLASSIFICATION_TYPE":"U"},{"OBJECT_ID":"2020-035BG","MEAN_MOTION_DOT":"0.00000145","INCLINATION":"53.0550","PERIAPSIS":"545.945","PERIOD":"95.592","TLE_LINE2":"2 45711  53.0550  15.4735 0001836  63.0736 297.0440 15.06399132 90202","MEAN_ANOMALY":"297.0440","GP_ID":"193623925","SITE":"AFETR","OBJECT_NAME":"STARLINK-1433","BSTAR":"0.00002867500000","TLE_LINE1":"1 45711U 20035BG  22010.73581698  .00000145  00000-0  28675-4 0  9992","RCS_SIZE":"LARGE","FILE":"3269118","MEAN_MOTION_DDOT":"0.0000000000000","OBJECT_TYPE":"PAYLOAD","REF_FRAME":"TEME","MEAN_MOTION":"15.06399132","CENTER_NAME":"EARTH","RA_OF_ASC_NODE":"15.4735","ARG_OF_PERICENTER":"63.0736","CLASSIFICATION_TYPE":"U","EPOCH":"2022-01-10T17:39:34.587072","APOAPSIS":"548.488","COUNTRY_CODE":"US","ELEMENT_SET_NO":"999","LAUNCH_DATE":"2020-06-04","NORAD_CAT_ID":"45711","MEAN_ELEMENT_THEORY":"SGP4","TIME_SYSTEM":"UTC","DECAY_DATE":null,"SEMIMAJOR_AXIS":"6925.351","ECCENTRICITY":"0.00018360","REV_AT_EPOCH":"9020","EPHEMERIS_TYPE":"0"},{"OBJECT_ID":"2020-035BH","PERIAPSIS":"546.019","MEAN_MOTION_DOT":"0.00005087","INCLINATION":"53.0550","TLE_LINE2":"2 45712  53.0550  15.4910 0001683  72.1330 287.9842 15.06409411 90216","PERIOD":"95.592","MEAN_ANOMALY":"287.9842","SITE":"AFETR","GP_ID":"193624175","BSTAR":"0.00036004000000","TLE_LINE1":"1 45712U 20035BH  22010.73213249  .00005087  00000-0  36004-3 0  9991","OBJECT_NAME":"STARLINK-1434","RCS_SIZE":"LARGE","MEAN_MOTION_DDOT":"0.0000000000000","FILE":"3269118","REF_FRAME":"TEME","OBJECT_TYPE":"PAYLOAD","RA_OF_ASC_NODE":"15.4910","MEAN_MOTION":"15.06409411","CENTER_NAME":"EARTH","ARG_OF_PERICENTER":"72.1330","CLASSIFICATION_TYPE":"U","EPOCH":"2022-01-10T17:34:16.247136","LAUNCH_DATE":"2020-06-04","APOAPSIS":"548.350","COUNTRY_CODE":"US","ELEMENT_SET_NO":"999","MEAN_ELEMENT_THEORY":"SGP4","NORAD_CAT_ID":"45712","DECAY_DATE":null,"REV_AT_EPOCH":"9021","SEMIMAJOR_AXIS":"6925.320","ECCENTRICITY":"0.00016830","EPHEMERIS_TYPE":"0","TIME_SYSTEM":"UTC"},{"CLASSIFICATION_TYPE":"U","ARG_OF_PERICENTER":"70.3394","RA_OF_ASC_NODE":"35.3970","MEAN_MOTION":"15.06403176","CENTER_NAME":"EARTH","REV_AT_EPOCH":"8992","DECAY_DATE":null,"SEMIMAJOR_AXIS":"6925.339","ECCENTRICITY":"0.00015400","EPHEMERIS_TYPE":"0","TIME_SYSTEM":"UTC","NORAD_CAT_ID":"45713","MEAN_ELEMENT_THEORY":"SGP4","LAUNCH_DATE":"2020-06-04","APOAPSIS":"548.270","COUNTRY_CODE":"US","ELEMENT_SET_NO":"999","EPOCH":"2022-01-10T18:03:26.994528","GP_ID":"193622425","SITE":"AFETR","PERIOD":"95.592","TLE_LINE2":"2 45713  53.0539  35.3970 0001540  70.3394 289.7761 15.06403176 89921","MEAN_ANOMALY":"289.7761","PERIAPSIS":"546.137","INCLINATION":"53.0539","MEAN_MOTION_DOT":"0.00002325","OBJECT_ID":"2020-035BJ","REF_FRAME":"TEME","OBJECT_TYPE":"PAYLOAD","MEAN_MOTION_DDOT":"0.0000000000000","FILE":"3269118","RCS_SIZE":"LARGE","TLE_LINE1":"1 45713U 20035BJ  22010.75239577  .00002325  00000-0  17492-3 0  9998","BSTAR":"0.00017492000000","OBJECT_NAME":"STARLINK-1436"},{"LAUNCH_DATE":"2020-06-04","ELEMENT_SET_NO":"999","COUNTRY_CODE":"US","APOAPSIS":"548.319","EPOCH":"2022-01-10T17:50:11.400000","EPHEMERIS_TYPE":"0","SEMIMAJOR_AXIS":"6925.328","DECAY_DATE":null,"ECCENTRICITY":"0.00016270","REV_AT_EPOCH":"9021","TIME_SYSTEM":"UTC","NORAD_CAT_ID":"45714","MEAN_ELEMENT_THEORY":"SGP4","ARG_OF_PERICENTER":"73.5744","RA_OF_ASC_NODE":"15.4417","CENTER_NAME":"EARTH","MEAN_MOTION":"15.06406792","CLASSIFICATION_TYPE":"U","RCS_SIZE":"LARGE","BSTAR":"0.00018642000000","TLE_LINE1":"1 45714U 20035BK  22010.74318750  .00002497  00000-0  18642-3 0  9997","OBJECT_NAME":"STARLINK-1437","REF_FRAME":"TEME","OBJECT_TYPE":"PAYLOAD","MEAN_MOTION_DDOT":"0.0000000000000","FILE":"3269118","PERIAPSIS":"546.066","INCLINATION":"53.0552","MEAN_MOTION_DOT":"0.00002497","OBJECT_ID":"2020-035BK","GP_ID":"193623174","SITE":"AFETR","MEAN_ANOMALY":"286.5423","TLE_LINE2":"2 45714  53.0552  15.4417 0001627  73.5744 286.5423 15.06406792 90213","PERIOD":"95.592"}];
